STARLINK-31824          
1 59804U 24093Y   26068.43487461 -.00001467  00000+0 -43775-4 0  9992
2 59804  43.0106 210.5780 0002395 283.6714  76.3871 15.27575791102650
TEVEL2-1                
1 63217U 25052H   26068.64782323  .00020683  00000+0  70600-3 0  9994
2 63217  97.3991 324.7682 0004767 104.8919 255.2849 15.30341923 54855
